BEIDOU-2 IGSO-1 (C06)   
1 36828U 10036A   24198.26978604 -.00000062  00000+0  00000+0 0  9990
2 36828  54.2576 169.3015 0041752 207.0825 123.3699  1.00274224 51175
BEIDOU-2 G4 (C04)       
1 37210U 10057A   24199.52958049 -.00000098  00000+0  00000+0 0  9999
2 37210   1.9151  69.1838 0004321 150.1347  67.1075  1.00270184 50271
BEIDOU-2 IGSO-2 (C07)   
1 37256U 10068A   24198.65881245 -.00000186  00000+0  00000+0 0  9995
2 37256  48.8234 280.4635 0039612 215.0832 142.5706  1.00294551 49762
BEIDOU-2 IGSO-3 (C08)   
1 37384U 11013A   24199.51704153 -.00000156  00000+0  00000+0 0  9993
2 37384  61.3936  46.8184 0027739 173.5927   5.8981  1.00251490 48643
BEIDOU-2 IGSO-4 (C09)   
1 37763U 11038A   24198.91368837  .00000047  00000+0  00000+0 0  9997
2 37763  54.5630 171.9105 0126244 229.0670 315.7667  1.00253819 47623
BEIDOU-2 IGSO-5 (C10)   
1 37948U 11073A   24198.67329295 -.00000150  00000+0  00000+0 0  9995
2 37948  48.9566 280.1537 0101971 220.6536 131.6648  1.00287520 46105
BEIDOU-2 G5 (C05)       
1 38091U 12008A   24199.50787919  .00000073  00000+0  00000+0 0  9991
2 38091   2.1468  71.0867 0003618 260.0750 206.1910  1.00268704 45355
BEIDOU-2 M3 (C11)       
1 38250U 12018A   24199.00229047 -.00000086  00000+0  00000+0 0  9992
2 38250  56.3182 328.3512 0021849 260.7374  99.0179  1.86231285 82902
BEIDOU-2 M4 (C12)       
1 38251U 12018B   24199.46932225 -.00000084  00000+0  00000+0 0  9990
2 38251  56.2245 327.6050 0012718 260.7312  99.1277  1.86231991 82913
BEIDOU-2 M6 (C14)       
1 38775U 12050B   24199.17891473 -.00000043  00000+0  00000+0 0  9999
2 38775  55.9352  86.1604 0013059 343.9062  16.1034  1.86231217 80274
BEIDOU-2 G6 (C02)       
1 38953U 12059A   24199.58445764 -.00000161  00000+0  00000+0 0  9990
2 38953   2.6343  80.2996 0009105 319.9460 189.9413  1.00275833 42896
BEIDOU-3S IGSO-1S (C31) 
1 40549U 15019A   24198.76906757 -.00000172  00000+0  00000+0 0  9998
2 40549  50.5184 303.8456 0035729 193.9468 166.5983  1.00299229 34056
BEIDOU-3S M2S (C58)     
1 40748U 15037A   24199.13232076 -.00000085  00000+0  00000+0 0  9990
2 40748  55.4558 326.0182 0009653 244.9164 114.9875  1.86233286 61081
BEIDOU-3S M1S (C57)     
1 40749U 15037B   24198.86647146 -.00000086  00000+0  00000+0 0  9999
2 40749  55.4588 326.0136 0002496 346.2997  13.6975  1.86227634 61088
BEIDOU-3S IGSO-2S (C56) 
1 40938U 15053A   24198.65637582 -.00000093  00000+0  00000+0 0  9995
2 40938  50.3106 267.0633 0053270 191.6187 166.4261  1.00256210 32321
BEIDOU-2 IGSO-6 (C13)   
1 41434U 16021A   24199.41031042 -.00000138  00000+0  00000+0 0  9997
2 41434  59.2200  45.0415 0048276 221.4769 271.8488  1.00265590 30462
BEIDOU-2 G7 (C03)       
1 41586U 16037A   24199.58976602 -.00000339  00000+0  00000+0 0  9993
2 41586   1.9774  69.9803 0008720   5.5329 183.2444  1.00272927 29771
BEIDOU-3 M1 (C19)       
1 43001U 17069A   24197.87099892 -.00000050  00000+0  00000+0 0  9990
2 43001  56.0842  86.3050 0009545 310.8763  49.0891  1.86231645 45543
BEIDOU-3 M2 (C20)       
1 43002U 17069B   24197.27136466 -.00000052  00000+0  00000+0 0  9996
2 43002  56.0831  86.3603 0008042 338.1663  21.8470  1.86231081 45522
BEIDOU-3 M7 (C27)       
1 43107U 18003A   24198.09405442 -.00000090  00000+0  00000+0 0  9997
2 43107  54.9146 326.6317 0004208  83.1831 276.8690  1.86232595 44290
BEIDOU-3 M8 (C28)       
1 43108U 18003B   24198.03472715 -.00000090  00000+0  00000+0 0  9999
2 43108  54.9077 326.6191 0003211 247.0541 112.9164  1.86231050 44309
BEIDOU-3 M4 (C22)       
1 43207U 18018A   24199.01299904 -.00000044  00000+0  00000+0 0  9990
2 43207  56.0437  86.3551 0006298   8.6173 351.4437  1.86231499 43705
BEIDOU-3 M3 (C21)       
1 43208U 18018B   24199.07960667 -.00000043  00000+0  00000+0 0  9997
2 43208  56.0433  86.3572 0007553 326.2107  33.7917  1.86231379 43706
BEIDOU-3 M9 (C29)       
1 43245U 18029A   24199.30050159 -.00000084  00000+0  00000+0 0  9997
2 43245  54.7964 324.2956 0000923 183.8928 176.1119  1.86232821 42868
BEIDOU-3 M10 (C30)      
1 43246U 18029B   24197.08234752 -.00000093  00000+0  00000+0 0  9994
2 43246  54.7951 324.3996 0003025  19.0107 341.0064  1.86233077 42805
BEIDOU-2 IGSO-7 (C16)   
1 43539U 18057A   24198.26773976 -.00000061  00000+0  00000+0 0  9992
2 43539  55.1516 169.1356 0079161 234.5898  95.5886  1.00303017 22104
BEIDOU-3 M5 (C23)       
1 43581U 18062A   24198.37967005  .00000118  00000+0  00000+0 0  9997
2 43581  54.1314 206.1396 0005628 277.7950  82.1824  1.86228859 40587
BEIDOU-3 M6 (C24)       
1 43582U 18062B   24199.31930747  .00000118  00000+0  00000+0 0  9996
2 43582  54.1310 206.0969 0004504 354.3815   5.6549  1.86229762 40604
BEIDOU-3 M12 (C26)      
1 43602U 18067A   24198.17843763  .00000118  00000+0  00000+0 0  9998
2 43602  54.2219 204.8196 0006758  16.9555 343.1058  1.86231698 40065
BEIDOU-3 M11 (C25)      
1 43603U 18067B   24199.38629295  .00000118  00000+0  00000+0 0  9995
2 43603  54.2190 204.7437 0003810 358.2367   1.8007  1.86231592 40111
BEIDOU-3 M13 (C32)      
1 43622U 18072A   24197.19983019 -.00000052  00000+0  00000+0 0  9994
2 43622  56.0135  85.9453 0006156 312.7224  47.2737  1.86231653 39582
BEIDOU-3 M14 (C33)      
1 43623U 18072B   24199.21310057 -.00000043  00000+0  00000+0 0  9996
2 43623  56.0171  85.8712 0004764 347.5135  12.5262  1.86231619 39614
BEIDOU-3 M16 (C35)      
1 43647U 18078A   24198.83863233 -.00000086  00000+0  00000+0 0  9991
2 43647  54.6927 324.4073 0006443  23.0696 336.9646  1.86232253 39118
BEIDOU-3 M15 (C34)      
1 43648U 18078B   24198.96779438 -.00000086  00000+0  00000+0 0  9999
2 43648  54.6885 324.4055 0003474  40.7108 319.3205  1.86232358 39131
BEIDOU-3 G1 (C59)       
1 43683U 18085A   24199.59564175 -.00000263  00000+0  00000+0 0  9993
2 43683   2.2639 108.4606 0004161 353.8824 187.9940  1.00275641 21049
BEIDOU-3 M17 (C36)      
1 43706U 18093A   24198.58152671  .00000118  00000+0  00000+0 0  9998
2 43706  54.2144 206.0733 0010421 280.9937  78.9305  1.86228510 38498
BEIDOU-3 M18 (C37)      
1 43707U 18093B   24198.44663442  .00000118  00000+0  00000+0 0  9997
2 43707  54.2151 206.0696 0008407 305.4365  54.5263  1.86230003 38486
BEIDOU-3 IGSO-1 (C38)   
1 44204U 19023A   24199.47891866 -.00000201  00000+0  00000+0 0  9995
2 44204  57.6860  44.9060 0022811 205.2569 336.1470  1.00292516   194
BEIDOU-2 G8 (C01)       
1 44231U 19027A   24199.62022671 -.00000232  00000+0  00000+0 0  9990
2 44231   1.5484  73.9615 0001347 180.1244  49.6805  1.00271104 19068
BEIDOU-3 IGSO-2 (C39)   
1 44337U 19035A   24199.42518887 -.00000088  00000+0  00000+0 0  9992
2 44337  55.1838 165.0042 0035251 204.9602 196.9024  1.00288116 18658
BEIDOU-3 M24 (C46)      
1 44542U 19061A   24198.51618923  .00000119  00000+0  00000+0 0  9994
2 44542  54.4420 206.3674 0007999 341.4526  18.5603  1.86229352 32744
BEIDOU-3 M23 (C45)      
1 44543U 19061B   24199.33186595  .00000119  00000+0  00000+0 0  9991
2 44543  54.4404 206.3088 0005679 321.1598 138.1564  1.86231860 32767
BEIDOU-3 IGSO-3 (C40)   
1 44709U 19073A   24198.65520384 -.00000191  00000+0  00000+0 0  9991
2 44709  55.9942 288.4169 0040892 188.0986 171.8971  1.00293795 17436
BEIDOU-3 M22 (C44)      
1 44793U 19078A   24197.82494986 -.00000090  00000+0  00000+0 0  9993
2 44793  54.5414 324.3709 0005428  32.9877 327.0518  1.86232313 31587
BEIDOU-3 M21 (C43)      
1 44794U 19078B   24197.95466593 -.00000090  00000+0  00000+0 0  9991
2 44794  54.5149 324.3418 0003285  30.7052 329.3197  1.86232777 31593
BEIDOU-3 M19 (C41)      
1 44864U 19090A   24199.42287405 -.00000041  00000+0  00000+0 0  9996
2 44864  55.9497  86.0412 0016846 284.7207 172.3882  1.86231860 31205
BEIDOU-3 M20 (C42)      
1 44865U 19090B   24199.23641010 -.00000042  00000+0  00000+0 0  9993
2 44865  55.9510  86.0808 0014884 299.0252 122.7923  1.86231783 31186
BEIDOU-3 G2 (C60)       
1 45344U 20017A   24199.58367444 -.00000126  00000+0  00000+0 0  9994
2 45344   2.3519  30.7764 0002119 128.7812  66.4994  1.00271105 16249
BEIDOU-3 G3 (C61)       
1 45807U 20040A   24199.58967899 -.00000338  00000+0  00000+0 0  9999
2 45807   0.8276  45.9112 0004680   6.8720 205.8410  1.00278445 15054
BEIDOU-3 G4             
1 56564U 23066A   24199.55882767 -.00000091  00000+0  00000+0 0  9995
2 56564   2.0493 288.2141 0006219 206.5792 162.2244  1.00272914  4383
BEIDOU-3 M25            
1 58654U 23207A   24199.11140644 -.00000045  00000+0  00000+0 0  9996
2 58654  55.1328  86.0461 0002001 317.8897  42.1449  1.86232329  3806
BEIDOU-3 M26            
1 58655U 23207B   24197.83651932 -.00000051  00000+0  00000+0 0  9998
2 58655  55.1338  86.0749 0002361 279.5079  80.5127  1.86232075  3764
